GLOBALSTAR M035         
1 25851U 99037A   25304.49661529 -.00000095  00000+0 -11896-2 0  9997
2 25851  51.9915 110.9787 0013315 197.6266 196.2255 11.04540297111327
GLOBALSTAR M032         
1 25852U 99037B   25304.63971596  .00000012  00000+0  25261-2 0  9990
2 25852  51.9956 286.4493 0012639  36.2481 323.9173 11.19064872150069
GLOBALSTAR M051         
1 25853U 99037C   25304.66189120 -.00000046  00000+0  63736-3 0  9996
2 25853  51.9794  71.6583 0001310 108.6211 251.4742 11.42205932147987
GLOBALSTAR M030         
1 25854U 99037D   25304.46197852 -.00000115  00000+0 -85539-3 0  9999
2 25854  51.9870 229.5838 0002966 303.2715  56.7817 11.55112843165790
GLOBALSTAR M048         
1 25872U 99041A   25304.60432935 -.00000065  00000+0  14386-3 0  9999
2 25872  51.9406  12.1091 0013426  62.8832  84.8052 11.33859580140454
GLOBALSTAR M026         
1 25873U 99041B   25304.54465096 -.00000058  00000+0  21325-3 0  9990
2 25873  52.0003 227.3947 0001829 117.0334  54.4224 11.06851014163581
GLOBALSTAR M043         
1 25874U 99041C   25304.66300619 -.00000059  00000+0  27723-3 0  9992
2 25874  51.9360 125.0508 0013547 179.0692 259.9310 11.25696448138240
GLOBALSTAR M028         
1 25875U 99041D   25304.50330201 -.00000060  00000+0  26259-3 0  9991
2 25875  51.9595 146.5927 0063553   8.4401 351.7514 12.50590744207233
